[{"id": "566600540", "lat": 34.1368473, "lon": -118.127086, "type": "building", "name": "Bechtel Mall"},
{"id": "566600648", "lat": 34.1340671, "lon": -118.1263745, "type": "building", "amenity": "parking_entrance"},
{"id": "571718697", "lat": 34.1376502, "lon": -118.1233516, "type": "building", "amenity": "restaurant", "name": "Chandler Cafeteria"},
{"id": "844352128", "lat": 34.138, "lon": -118.1211784, "type": "building", "name": "Metro"},
{"id": "844352152", "lat": 34.1361942, "lon": -118.1211815, "type": "building", "name": "Metro"},
{"id": "844352177", "lat": 34.1394691, "lon": -118.1226079, "type": "building", "amenity": "parking_entrance"},
{"id": "844352190", "lat": 34.1357826, "lon": -118.1263766, "type": "building", "name": "Metro"},
{"id": "844352193", "lat": 34.1376438, "lon": -118.1213584, "type": "building", "name": "Metro"},
{"id": "844945134", "lat": 34.141071, "lon": -118.1247264, "type": "building", "name": "Del Mar / Chester"},
{"id": "1279290534", "lat": 34.1410717, "lon": -118.1320886, "type": "building", "address": "270 South Lake Avenue, Pasadena", "shop": "furniture", "name": "Pampa Furniture"},
{"id": "1726879336", "lat": 34.1416153, "lon": -118.1320756, "type": "building", "amenity": "fast_food", "address": "246 South Lake Avenue, Pasadena", "name": "Chipotle"},
{"id": "1726880721", "lat": 34.142089, "lon": -118.1320886, "type": "building", "amenity": "fast_food", "name": "Rubio's"},
{"id": "1726881553", "lat": 34.1420221, "lon": -118.1320896, "type": "building", "amenity": "fast_food", "name": "Panda Express"},
{"id": "1841515694", "lat": 34.1357451, "lon": -118.1278402, "type": "building", "amenity": "post_box"},
{"id": "2001906740", "lat": 34.1422154, "lon": -118.1320794, "type": "building", "amenity": "fast_food", "address": "214 Sout Lake Avenue, Pasadena", "name": "Du-par’s"},
{"id": "2001906751", "lat": 34.1376012, "lon": -118.1320544, "type": "building", "amenity": "fuel", "name": "Mobil"},
{"id": "2001906764", "lat": 34.1379808, "lon": -118.1320437, "type": "building", "address": "460 South Lake Avenue, Pasadena", "shop": "department_store", "name": "Ross"},
{"id": "2001906771", "lat": 34.1408089, "lon": -118.1325453, "type": "building", "amenity": "bank", "name": "Citibank"},
{"id": "2029287303", "lat": 34.1374988, "lon": -118.1235964, "type": "building", "amenity": "atm"},
{"id": "2030772619", "lat": 34.1356057, "lon": -118.127028, "type": "building", "amenity": "post_office", "name": "United States Post Office"},
{"id": "2030772624", "lat": 34.135644, "lon": -118.1270266, "type": "building", "amenity": "atm"},
{"id": "2030804258", "lat": 34.1399729, "lon": -118.1297093, "type": "building", "name": "Olive Tree Condo"},
{"id": "2105116849", "lat": 34.1417723, "lon": -118.1320847, "type": "building", "amenity": "restaurant", "name": "Abricott"},
{"id": "2210736687", "lat": 34.1360908, "lon": -118.1324691, "type": "building", "shop": "bakery", "name": "Winchell's Donut House"},
{"id": "2210737282", "lat": 34.1360138, "lon": -118.1324894, "type": "building", "amenity": "cafe", "name": "Starbucks"},
{"id": "2210737728", "lat": 34.1354883, "lon": -118.1324869, "type": "building", "amenity": "cafe", "name": "Peet's Coffee"},
{"id": "2210737858", "lat": 34.1354794, "lon": -118.1326746, "type": "building", "amenity": "fast_food", "address": "605 South Lake Avenue, Pasadena", "name": "Einstein Bros. Bagels"},
{"id": "2298992021", "lat": 34.1423674, "lon": -118.1320846, "type": "building", "amenity": "fast_food", "address": "204 South Lake Avenue, Pasadena", "name": "Jamba Juice"},
{"id": "2298992022", "lat": 34.1393186, "lon": -118.1316331, "type": "building", "amenity": "cafe", "address": "380 South Lake Ave #106, Pasadena", "name": "Float"},
{"id": "2440696743", "lat": 34.1408163, "lon": -118.132477, "type": "building", "amenity": "post_box"},
{"id": "2443317530", "lat": 34.1423118, "lon": -118.132215, "type": "building", "amenity": "post_box"},
{"id": "2445083316", "lat": 34.1418605, "lon": -118.1320162, "type": "building", "amenity": "restaurant", "address": "230 South Lake Avenue, Pasadena", "name": "Fish Dish"},
{"id": "2450046803", "lat": 34.1428363, "lon": -118.132212, "type": "building", "name": "Lake Ave & Cordova St"},
{"id": "2450046804", "lat": 34.1422351, "lon": -118.132463, "type": "building", "name": "Lake Ave & Cordova St"},
{"id": "2450046828", "lat": 34.1424436, "lon": -118.133329, "type": "building", "amenity": "post_box", "name": "USPS"},
{"id": "2450046830", "lat": 34.1410442, "lon": -118.1318559, "type": "building", "amenity": "restaurant", "name": "Real Food Daily"},
{"id": "2450046831", "lat": 34.14116, "lon": -118.1316699, "type": "building", "amenity": "restaurant", "name": "Mediterranean Cafe"},
{"id": "2450046832", "lat": 34.1406631, "lon": -118.1320225, "type": "building", "name": "Del Mar / Lake"},
{"id": "2698264224", "lat": 34.1322246, "lon": -118.1296073, "type": "building", "amenity": "vending_machine"},
{"id": "2698273234", "lat": 34.1408274, "lon": -118.1211825, "type": "building", "amenity": "post_box"},
{"id": "2699358286", "lat": 34.1345427, "lon": -118.1283174, "type": "building", "amenity": "parking_entrance"},
{"id": "2735418282", "lat": 34.1382846, "lon": -118.1284959, "type": "building", "amenity": "charging_station"},
{"id": "2761778927", "lat": 34.1346407, "lon": -118.1248551, "type": "building", "name": "Caltech Childcare Center"},
{"id": "3183112630", "lat": 34.141711, "lon": -118.1320868, "type": "building", "address": "240 South Lake Avenue, Pasadena", "shop": "bed", "name": "Relax The Back"},
{"id": "3183112633", "lat": 34.1419274, "lon": -118.1320164, "type": "building", "amenity": "fast_food", "address": "250 South Lake Avenue, Pasadena", "name": "Which Wich?"},
{"id": "3184175950", "lat": 34.1415416, "lon": -118.1320813, "type": "building", "amenity": "bank", "address": "250 South Lake Avenue, Pasadena", "name": "First Financial Credit Union"},
{"id": "3184175951", "lat": 34.1413636, "lon": -118.1320755, "type": "building", "address": "260 South Lake Avenue, Pasadena", "shop": "bed", "name": "Mattress City"},
{"id": "3184175962", "lat": 34.1414626, "lon": -118.1320745, "type": "building", "amenity": "bank", "address": "255 South Lake Avenue, Pasadena", "name": "Simplicity Bank"},
{"id": "3184175963", "lat": 34.1410443, "lon": -118.1318124, "type": "building", "address": "901 East Del Mar Boulevard, Pasadena", "shop": "mobile_phone"},
{"id": "3184199187", "lat": 34.1401109, "lon": -118.1320893, "type": "building", "address": "326 South Lake Avenue, Pasadena", "shop": "vacant"},
{"id": "3184199188", "lat": 34.1397845, "lon": -118.1317345, "type": "building", "shop": "beauty", "name": "AcuSpa"},
{"id": "3184199189", "lat": 34.1397315, "lon": -118.1319624, "type": "building", "shop": "hairdresser", "name": "Carnelian Salon"},
{"id": "3184199190", "lat": 34.1397303, "lon": -118.1318382, "type": "building", "shop": "optician", "name": "Diamond Vision Optometry"},
{"id": "3184199191", "lat": 34.1397292, "lon": -118.13171, "type": "building", "shop": "beauty", "name": "Integrity Lash"},
{"id": "3184199192", "lat": 34.1396584, "lon": -118.132042, "type": "building", "amenity": "cafe", "name": "Le Café Crème"},
{"id": "3184199193", "lat": 34.1397868, "lon": -118.1318396, "type": "building", "shop": "hairdresser", "name": "Little Kuts"},
{"id": "3184199194", "lat": 34.1402385, "lon": -118.1320661, "type": "building", "address": "320 South Lake Avenue, Pasadena", "shop": "pet", "name": "Pet Food Express"},
{"id": "3184199238", "lat": 34.1397913, "lon": -118.1319638, "type": "building", "amenity": "restaurant", "name": "San Sai Japanese Grill"},
{"id": "3184199239", "lat": 34.1405186, "lon": -118.1320661, "type": "building", "address": "310 South Lake Avenue, Pasadena", "shop": "furniture", "name": "Sit 'n Sleep"},
{"id": "3184199240", "lat": 34.1396524, "lon": -118.131957, "type": "building", "amenity": "doctors", "name": "South Lake Avenue Medical Center"},
{"id": "3184199241", "lat": 34.1397914, "lon": -118.1320521, "type": "building", "shop": "beauty", "name": "South Lake Avenue Nail Design"},
{"id": "3184199242", "lat": 34.1397287, "lon": -118.1320458, "type": "building", "name": "The Strength Shoppe"},
{"id": "3184199243", "lat": 34.1400364, "lon": -118.1320825, "type": "building", "amenity": "restaurant", "address": "336 South Lake Avenue, Pasadena", "name": "Trattoria Neapolis"},
{"id": "3184214964", "lat": 34.1392731, "lon": -118.1320301, "type": "building", "name": "Amy Ear Acupuncture & Herbal Medicine"},
{"id": "3184214965", "lat": 34.1396061, "lon": -118.132054, "type": "building", "shop": "jewelry", "name": "Arnolds Fine Jewelry"},
{"id": "3184214966", "lat": 34.1392881, "lon": -118.1319422, "type": "building", "amenity": "cafe", "shop": "deli", "name": "Contessa Chocolate Collection"},
{"id": "3184214967", "lat": 34.1392742, "lon": -118.1321025, "type": "building", "shop": "beauty", "name": "Merle Norman"},
{"id": "3184214968", "lat": 34.1396029, "lon": -118.1319436, "type": "building", "shop": "electronics", "name": "Monaco Audio Video"},
{"id": "3184214969", "lat": 34.1394235, "lon": -118.1321078, "type": "building", "address": "370 South Lake Avenue, Pasadena", "shop": "toys", "name": "Right Start"},
{"id": "3184214970", "lat": 34.1394752, "lon": -118.1320569, "type": "building", "address": "368 South Lake Avenue, Pasadena", "shop": "mobile_phone", "name": "Verizon Wireless"},
{"id": "3184838818", "lat": 34.1387182, "lon": -118.1320634, "type": "building", "address": "414 South Lake Avenue, Pasadena", "shop": "bed", "name": "Custom Comfort Mattress"},
{"id": "3184838819", "lat": 34.1389966, "lon": -118.1320552, "type": "building", "address": "396 South Lake Avenue, Pasadena", "shop": "clothes", "name": "Draper's & Damon's"},
{"id": "3184838820", "lat": 34.1388487, "lon": -118.13206, "type": "building", "address": "406 South Lake Avenue, Pasadena", "shop": "clothes", "name": "Men's Wearhouse"},
{"id": "3184838821", "lat": 34.1383698, "lon": -118.132062, "type": "building", "address": "440 South Lake Avenue, Pasadena", "shop": "electronics", "name": "Pacific Sales Kitchen, Bath & Electronics"},
{"id": "3184838822", "lat": 34.1385703, "lon": -118.132057, "type": "building", "address": "422 South Lake Avenue, Pasadena", "shop": "interior_decoration", "name": "Pier 1 Imports"},
{"id": "3316547366", "lat": 34.1407273, "lon": -118.1232011, "type": "building", "amenity": "parking_entrance"},
{"id": "3762118887", "lat": 34.140451, "lon": -118.131678, "type": "building", "shop": "chemist", "name": "Walgreens"},
{"id": "3909644664", "lat": 34.1364043, "lon": -118.1319576, "type": "building", "shop": "dry_cleaning", "name": "Fashion Cleaners"},
{"id": "3909644665", "lat": 34.1367256, "lon": -118.1320575, "type": "building", "address": "430 South Lake Avenue, Pasadena", "shop": "yes", "name": "Mailbox Planet"},
{"id": "3909644666", "lat": 34.137501, "lon": -118.1327461, "type": "building", "shop": "vacant"},
{"id": "3909644673", "lat": 34.1384511, "lon": -118.1325316, "type": "building", "amenity": "cafe", "name": "The Coffee Bean & Tea Leaf"},
{"id": "3909652585", "lat": 34.1391466, "lon": -118.1321072, "type": "building", "name": "Coldwell Banker"},
{"id": "3909933903", "lat": 34.1353184, "lon": -118.1320524, "type": "building", "shop": "hairdresser", "name": "Orpheum Salon"},
{"id": "3909933904", "lat": 34.1353883, "lon": -118.1320604, "type": "building", "shop": "dry_cleaning", "name": "French Hand Laundry"},
{"id": "3985184659", "lat": 34.1379539, "lon": -118.1321885, "type": "building", "amenity": "waste_basket"},
{"id": "3985184660", "lat": 34.1379404, "lon": -118.1324122, "type": "building", "amenity": "waste_basket"},
{"id": "4224077201", "lat": 34.1416694, "lon": -118.1216045, "type": "building", "name": "Del Mar / Hill"},
{"id": "4224077202", "lat": 34.1408705, "lon": -118.1278245, "type": "building", "name": "Del Mar / Wilson"},
{"id": "4224087198", "lat": 34.1418805, "lon": -118.1216527, "type": "building", "name": "Del Mar / Hill"},
{"id": "4224087199", "lat": 34.1410298, "lon": -118.1306433, "type": "building", "name": "Del Mar / Mentor"},
{"id": "4224097295", "lat": 34.1409362, "lon": -118.1243438, "type": "building", "name": "Del Mar / Chester"},
{"id": "4224097296", "lat": 34.1410552, "lon": -118.1276597, "type": "building", "name": "Del Mar / Wilson"},
{"id": "4224097298", "lat": 34.1408427, "lon": -118.1305624, "type": "building", "name": "Del Mar / Mentor"},
{"id": "4682256636", "lat": 34.1356945, "lon": -118.1327637, "type": "building", "amenity": "pharmacy", "name": "CVS Pharmacy"},
{"id": "4840741430", "lat": 34.138313, "lon": -118.128175, "type": "building", "amenity": "parking_entrance"},
{"id": "4840741432", "lat": 34.1399006, "lon": -118.1281792, "type": "building", "amenity": "parking_entrance"},
{"id": "4840741435", "lat": 34.1399934, "lon": -118.1281803, "type": "building", "amenity": "parking_entrance"},
{"id": "4882463842", "lat": 34.1362246, "lon": -118.1324783, "type": "building", "address": "567 South Lake Avenue, Pasadena", "shop": "boutique", "name": "Ten Thousand Villages"},
{"id": "4882463843", "lat": 34.1361666, "lon": -118.132476, "type": "building", "shop": "beauty", "name": "European Wax Center"},
{"id": "4882463844", "lat": 34.1362861, "lon": -118.132476, "type": "building", "shop": "dry_cleaning", "name": "Tip-Top Cleaners"},
{"id": "4882463845", "lat": 34.1363313, "lon": -118.1324774, "type": "building", "shop": "beauty", "name": "Honey Nail Spa"},
{"id": "4882463846", "lat": 34.136369, "lon": -118.1324785, "type": "building", "amenity": "ice_cream", "name": "Baskin-Robbins"},
{"id": "4882463847", "lat": 34.1364346, "lon": -118.1324845, "type": "building", "amenity": "bank", "name": "SchoolsFirst Federal Credit Union"},
{"id": "4882463848", "lat": 34.136508, "lon": -118.1324726, "type": "building", "name": "Curative Yoga"},
{"id": "4882463849", "lat": 34.1365617, "lon": -118.1324881, "type": "building", "amenity": "restaurant", "name": "Burger Continental"},
{"id": "4924536236", "lat": 34.1329176, "lon": -118.1334349, "type": "building", "address": "752 South Hudson Avenue, Pasadena"},
{"id": "5192774778", "lat": 34.1367717, "lon": -118.1261432, "type": "building", "shop": "books", "name": "Caltech Bookstore"},
{"id": "5413111902", "lat": 34.1365542, "lon": -118.1320368, "type": "building", "address": "548 South Lake Avenue, Pasadena", "shop": "bakery", "name": "Nothing Bundt Cakes"},
{"id": "5719023596", "lat": 34.1398776, "lon": -118.1325357, "type": "building", "amenity": "cafe", "name": "Corner Bakery Cafe"},
{"id": "5719023597", "lat": 34.1379062, "lon": -118.1325249, "type": "building", "shop": "bed", "name": "Mattress Firm"},
{"id": "6422326416", "lat": 34.1369186, "lon": -118.13202, "type": "building", "amenity": "fast_food", "name": "Tpumps Boba"},
{"id": "6795141445", "lat": 34.1427758, "lon": -118.1325694, "type": "building", "address": "181 South Lake Avenue, Pasadena", "shop": "nutrition_supplements", "name": "The Vitamin Shoppe"},
{"id": "7215860597", "lat": 34.1420548, "lon": -118.1192941, "type": "building", "amenity": "parking_entrance"},
{"id": "7215860598", "lat": 34.1427859, "lon": -118.1204841, "type": "building", "amenity": "parking_entrance"},
{"id": "7215860600", "lat": 34.1421532, "lon": -118.1204821, "type": "building", "amenity": "parking_entrance"},
{"id": "7386436588", "lat": 34.1400695, "lon": -118.1325222, "type": "building", "amenity": "restaurant", "name": "CAVA"},
{"id": "7490722285", "lat": 34.1366444, "lon": -118.1324935, "type": "building", "amenity": "restaurant", "name": "The Arbour"},
{"id": "7871792649", "lat": 34.1377172, "lon": -118.1245373, "type": "building", "amenity": "bicycle_parking"},
{"id": "7871792657", "lat": 34.1389689, "lon": -118.1243355, "type": "building", "amenity": "bicycle_parking"},
{"id": "7871792658", "lat": 34.139182, "lon": -118.1246033, "type": "building", "amenity": "bicycle_parking"},
{"id": "7871792666", "lat": 34.1394979, "lon": -118.1248552, "type": "building", "amenity": "bicycle_parking"},
{"id": "7871792673", "lat": 34.1396809, "lon": -118.1242415, "type": "building", "amenity": "bicycle_parking"},
{"id": "7871804581", "lat": 34.1368028, "lon": -118.1268498, "type": "building", "amenity": "bicycle_parking"},
{"id": "7871804603", "lat": 34.1367615, "lon": -118.1264936, "type": "building", "amenity": "bicycle_parking"},
{"id": "7871804604", "lat": 34.1366462, "lon": -118.1262407, "type": "building", "amenity": "bicycle_parking"},
{"id": "7871804614", "lat": 34.1380004, "lon": -118.1257278, "type": "building", "amenity": "bicycle_parking"},
{"id": "7871804615", "lat": 34.1392723, "lon": -118.1264596, "type": "building", "amenity": "bicycle_parking"},
{"id": "7871804616", "lat": 34.1391195, "lon": -118.1264586, "type": "building", "amenity": "bicycle_parking"},
{"id": "7871804642", "lat": 34.1370671, "lon": -118.1263655, "type": "building", "amenity": "bicycle_parking"},
{"id": "7871804693", "lat": 34.1383748, "lon": -118.126484, "type": "building", "amenity": "bicycle_parking"},
{"id": "7871804704", "lat": 34.1365124, "lon": -118.1240654, "type": "building", "amenity": "bicycle_parking"},
{"id": "7873878120", "lat": 34.136512, "lon": -118.1249153, "type": "building", "amenity": "bicycle_parking"},
{"id": "7873878121", "lat": 34.1363949, "lon": -118.1250272, "type": "building", "amenity": "bicycle_parking"},
{"id": "7873893591", "lat": 34.1372617, "lon": -118.1249993, "type": "building", "amenity": "bicycle_parking"},
{"id": "7873893592", "lat": 34.1374524, "lon": -118.1249884, "type": "building", "amenity": "bicycle_parking"},
{"id": "7873893593", "lat": 34.1375008, "lon": -118.1249102, "type": "building", "amenity": "bicycle_parking"},
{"id": "7873893607", "lat": 34.1371758, "lon": -118.1249173, "type": "building", "amenity": "bicycle_parking"},
{"id": "7877009774", "lat": 34.141299, "lon": -118.124688, "type": "building", "amenity": "bicycle_parking"},
{"id": "8320472128", "lat": 34.1411102, "lon": -118.1321917, "type": "building", "name": "Lake / Del Mar"},
{"id": "29111127", "lat": 34.133177127272724, "lon": -118.12870078484846, "type": "building", "amenity": "school", "name": "Polytechnic School"},
{"id": "29111188", "lat": 34.13775597894736, "lon": -118.12540396052634, "type": "building", "amenity": "university", "name": "California Institute of Technology"},
{"id": "29111275", "lat": 34.14376886896552, "lon": -118.11781228275859, "type": "building", "amenity": "college", "name": "Pasadena City College"},
{"id": "30086690", "lat": 34.1398636, "lon": -118.1274058111111, "type": "building", "name": "Broad Center"},
{"id": "30086717", "lat": 34.1386109, "lon": -118.12728856000001, "type": "building", "name": "Mead Laboratory"},
{"id": "30086723", "lat": 34.13850534444445, "lon": -118.12681634444445, "type": "building", "name": "Noyes Laboratory"},
{"id": "30086726", "lat": 34.13849512, "lon": -118.12594562, "type": "building", "name": "Beckman Laboratories"},
{"id": "30086730", "lat": 34.13849358, "lon": -118.12521552000001, "type": "building", "name": "Baxter Lecture Hall & Ramo Auditorium"},
{"id": "30086742", "lat": 34.13919758064517, "lon": -118.12554544516131, "type": "building", "name": "Beckman Auditorium"},
{"id": "30086749", "lat": 34.13976676153846, "lon": -118.12472440769231, "type": "building", "name": "Moore Laboratory"},
{"id": "30086758", "lat": 34.138377616666666, "lon": -118.12478408333334, "type": "building", "name": "Keck Laboratories"},
{"id": "30086767", "lat": 34.138710555555555, "lon": -118.12413199999999, "type": "building", "name": "Steele Laboratories"},
{"id": "30086769", "lat": 34.13814137999999, "lon": -118.12420696, "type": "building", "name": "Powell-Booth Laboratory for Computational Science"},
{"id": "30086775", "lat": 34.13826348, "lon": -118.12390386, "type": "building", "name": "Jorgensen Laboratory"},
{"id": "30794534", "lat": 34.13480398461538, "lon": -118.12671252307692, "type": "building", "name": "Caltech Athletic Center North Field"},
{"id": "30794553", "lat": 34.14247492142857, "lon": -118.11968388571431, "type": "building", "amenity": "parking", "name": "Staff Parking Lot No.4"},
{"id": "30794554", "lat": 34.142532100000004, "lon": -118.1208614107143, "type": "building", "amenity": "parking", "name": "Student Parking Lot No.3"},
{"id": "31880303", "lat": 34.133314209999995, "lon": -118.12872497999999, "type": "building", "name": "Babcock Field"},
{"id": "32735305", "lat": 34.13738836923077, "lon": -118.1225940769231, "type": "building", "name": "Ruddock House"},
{"id": "32735342", "lat": 34.13721219166667, "lon": -118.122815375, "type": "building", "name": "Lloyd House"},
{"id": "32735362", "lat": 34.137255675, "lon": -118.12333914999999, "type": "building", "name": "Page House"},
{"id": "32735459", "lat": 34.13623784117647, "lon": -118.12322581764705, "type": "building", "name": "Dabney House"},
{"id": "32735471", "lat": 34.13623827894736, "lon": -118.12265116842106, "type": "building", "name": "Blacker House"},
{"id": "34707760", "lat": 34.13895797777778, "lon": -118.13292254444445, "type": "building", "shop": "department_store", "name": "Macy's"},
{"id": "34707780", "lat": 34.139943806666665, "lon": -118.13301158666667, "type": "building", "address": "345 South Lake Avenue, Pasadena", "shop": "supermarket", "name": "Trader Joe's"},
{"id": "44634948", "lat": 34.13384301666667, "lon": -118.12550646666666, "type": "building", "amenity": "parking", "name": "Lot 6"},
{"id": "44634949", "lat": 34.13381732222222, "lon": -118.1261616111111, "type": "building", "name": "Brown Gym"},
{"id": "44634950", "lat": 34.13391045, "lon": -118.12749365833334, "type": "building", "name": "Braun Athletic Center"},
{"id": "44634962", "lat": 34.138059088888895, "lon": -118.1219264888889, "type": "building", "name": "Marks House"},
{"id": "44634965", "lat": 34.135311888888886, "lon": -118.12498604444444, "type": "building", "amenity": "doctors", "name": "Young Student Health Center"},
{"id": "44634969", "lat": 34.13565234, "lon": -118.12737166, "type": "building", "name": "Keith Spalding"},
{"id": "44634973", "lat": 34.13559225555556, "lon": -118.1263106111111, "type": "building", "name": "Cahill Center"},
{"id": "44634983", "lat": 34.13926972941176, "lon": -118.12347198823528, "type": "building", "name": "Central Engineering"},
{"id": "44634987", "lat": 34.138353058823526, "lon": -118.12328078823529, "type": "building", "address": "399 Holliston Ave, Pasadena", "name": "HR"},
{"id": "44634991", "lat": 34.13850832, "lon": -118.12250046666666, "type": "building", "name": "Center for Student Services"},
{"id": "44634995", "lat": 34.138066359999996, "lon": -118.12238414000001, "type": "building", "name": "Braun House"},
{"id": "44634999", "lat": 34.137279899999996, "lon": -118.12614269999999, "type": "building", "name": "Gates Annex"},
{"id": "44635003", "lat": 34.13812134444444, "lon": -118.12753436666665, "type": "building", "name": "Braun Labs"},
{"id": "44635008", "lat": 34.138170378260874, "lon": -118.12640553478262, "type": "building", "name": "Schlinger"},
{"id": "44635014", "lat": 34.13980818571429, "lon": -118.12380140000002, "type": "building", "name": "Annenberg Center for Information Science and Technology"},
{"id": "44635015", "lat": 34.13717925, "lon": -118.12696874166666, "type": "building", "name": "Kerckhoff"},
{"id": "44635017", "lat": 34.137510462499996, "lon": -118.1271221625, "type": "building", "name": "Church"},
{"id": "44635022", "lat": 34.13734594, "lon": -118.12718634000001, "type": "building", "name": "Alles"},
{"id": "44635025", "lat": 34.137403899999995, "lon": -118.12642781818182, "type": "building", "name": "Crellin"},
{"id": "44635027", "lat": 34.137382699999996, "lon": -118.12593473333332, "type": "building", "name": "Parsons-Gates"},
{"id": "44635032", "lat": 34.13632520000001, "lon": -118.12752099999999, "type": "building", "name": "South Mudd"},
{"id": "44635046", "lat": 34.13657647, "lon": -118.1266605, "type": "building", "name": "Arms"},
{"id": "44635050", "lat": 34.13642646666667, "lon": -118.12701746666666, "type": "building", "name": "Linde + Robinson"},
{"id": "44635051", "lat": 34.1366028, "lon": -118.1273854875, "type": "building", "name": "North Mudd"},
{"id": "44635054", "lat": 34.13637438333333, "lon": -118.12395436666668, "type": "building", "name": "Synchrotron"},
{"id": "44635056", "lat": 34.13665017777778, "lon": -118.12398083333333, "type": "building", "name": "Firestone"},
{"id": "44635057", "lat": 34.136408083333336, "lon": -118.12537818333334, "type": "building", "name": "Sloan"},
{"id": "44635058", "lat": 34.13648886, "lon": -118.12517164, "type": "building", "name": "Kellogg"},
{"id": "44635059", "lat": 34.13617211428571, "lon": -118.1252101857143, "type": "building", "name": "Sloan Annex"},
{"id": "44635060", "lat": 34.13736832857143, "lon": -118.12530565714285, "type": "building", "name": "Dabney Hall"},
{"id": "44635061", "lat": 34.1365718625, "lon": -118.12450600624999, "type": "building", "name": "Guggenheim"},
{"id": "44635062", "lat": 34.13648443333333, "lon": -118.12477877777776, "type": "building", "name": "Karman"},
{"id": "44635063", "lat": 34.13617066, "lon": -118.12471062, "type": "building", "name": "Downs"},
{"id": "44635065", "lat": 34.136160350000004, "lon": -118.12425062499999, "type": "building", "name": "Lauritsen"},
{"id": "44635068", "lat": 34.13687607941176, "lon": -118.12608592352942, "type": "building", "name": "Millikan Library"},
{"id": "44635071", "lat": 34.13710556666667, "lon": -118.12462916666665, "type": "building", "name": "Thomas"},
{"id": "44635077", "lat": 34.13760065714286, "lon": -118.12463917142857, "type": "building", "name": "Spalding"},
{"id": "44635080", "lat": 34.13738482, "lon": -118.12481084999999, "type": "building", "amenity": "library", "name": "Fairchild Library"},
{"id": "44635188", "lat": 34.13633789, "lon": -118.12187868999999, "type": "building", "amenity": "parking", "name": "Athenaeum Parking Lot"},
{"id": "44635204", "lat": 34.13985424444445, "lon": -118.12567260000002, "type": "building", "amenity": "parking", "name": "Lot 11"},
{"id": "45094662", "lat": 34.13760842916666, "lon": -118.12324264583332, "type": "building", "name": "Chandler Cafeteria"},
{"id": "45094937", "lat": 34.136869903333334, "lon": -118.12573975333332, "type": "building", "name": "Millikan Pond"},
{"id": "45094949", "lat": 34.139204459999995, "lon": -118.12621020000002, "type": "building", "amenity": "fountain", "name": "Gene Pool"},
{"id": "45095035", "lat": 34.139769538775504, "lon": -118.12679873469386, "type": "building", "amenity": "restaurant", "name": "Broad Cafe"},
{"id": "45420596", "lat": 34.13329894, "lon": -118.12768838, "type": "building", "name": "Morrisroe"},
{"id": "70721559", "lat": 34.137885714285716, "lon": -118.13330554285714, "type": "building", "amenity": "parking", "name": "The Shops on Lake Avenue"},
{"id": "70859870", "lat": 34.14117136, "lon": -118.12497479999999, "type": "building", "name": "Financial Services"},
{"id": "70859874", "lat": 34.14151996, "lon": -118.12487246, "type": "building", "name": "IMSS"},
{"id": "70872433", "lat": 34.13973746956522, "lon": -118.12624082173913, "type": "building", "address": "345 Michigan Ave, Pasadena", "name": "Tolman-Bacher House"},
{"id": "70872477", "lat": 34.13922344545454, "lon": -118.1275418909091, "type": "building", "name": "Beckman Lawn"},
{"id": "87244093", "lat": 34.13839718571428, "lon": -118.1255509642857, "type": "building", "name": "Beckman Mall"},
{"id": "112582252", "lat": 34.13953325, "lon": -118.1345158375, "type": "building", "amenity": "school", "name": "William McKinley Elementary School"},
{"id": "123323785", "lat": 34.13639875, "lon": -118.12588804000002, "type": "building", "name": "E Bridge"},
{"id": "123323786", "lat": 34.13643042857143, "lon": -118.12634725714285, "type": "building", "name": "W Bridge"},
{"id": "123323788", "lat": 34.136436222222216, "lon": -118.1261506, "type": "building", "name": "Bridge Annex"},
{"id": "129372180", "lat": 34.13647725882353, "lon": -118.13330355294117, "type": "building", "shop": "supermarket", "name": "Pavilions 2224"},
{"id": "160068426", "lat": 34.13644674, "lon": -118.12291547999999, "type": "building", "name": "South Kitchens"},
{"id": "160068428", "lat": 34.14153704444445, "lon": -118.12172712222221, "type": "building", "name": "Munth"},
{"id": "192368807", "lat": 34.13702692222222, "lon": -118.12830574444446, "type": "building", "amenity": "bank", "name": "Caltech Employees Federal Credit Union"},
{"id": "192368808", "lat": 34.1372298, "lon": -118.1285977, "type": "building", "name": "Caltech Y (Tyson House)"},
{"id": "192368814", "lat": 34.13612376, "lon": -118.12829133999999, "type": "building", "name": "Audit Services and Institute Compliance Office"},
{"id": "192368816", "lat": 34.136377519999996, "lon": -118.12833942, "type": "building", "name": "Treasurer's Office"},
{"id": "192368817", "lat": 34.13679294, "lon": -118.12837552, "type": "building", "name": "US Geological Survey"},
{"id": "192368822", "lat": 34.13657902857143, "lon": -118.12836187142855, "type": "building", "name": "Fitzhugh House"},
{"id": "192526724", "lat": 34.13705292, "lon": -118.1284328, "type": "building", "name": "Parking and Security Office"},
{"id": "192856966", "lat": 34.14238435714286, "lon": -118.12484505714284, "type": "building", "name": "iTennis Pasadena"},
{"id": "192856969", "lat": 34.14222730588235, "lon": -118.12537082941175, "type": "building", "name": "Grant Park"},
{"id": "193245415", "lat": 34.136777112500006, "lon": -118.125150975, "type": "building", "name": "Throop Memorial Garden"},
{"id": "196125637", "lat": 34.13835719473685, "lon": -118.13031347368423, "type": "building", "address": "975 San Pasqual Street, Pasadena", "name": "San Pasqual Apartments"},
{"id": "196125680", "lat": 34.13954662, "lon": -118.13040158000001, "type": "building", "name": "Olive Tree"},
{"id": "204876098", "lat": 34.13609743999999, "lon": -118.1318506, "type": "building", "shop": "convenience", "name": "Papa George's"},
{"id": "204876101", "lat": 34.13692624, "lon": -118.13204293999999, "type": "building", "name": "Tpumps"},
{"id": "204876106", "lat": 34.136105416666666, "lon": -118.13140518333334, "type": "building", "amenity": "restaurant", "name": "Pie'n Burger"},
{"id": "205868699", "lat": 34.14204949999999, "lon": -118.12157833076922, "type": "building", "amenity": "place_of_worship", "name": "Knox Presbyterian Church"},
{"id": "205868737", "lat": 34.142097293333336, "lon": -118.12621308666667, "type": "building", "amenity": "cafe", "address": "217 Michigan Avenue, Pasadena", "shop": "convenience", "name": "Ginger Corner Market"},
{"id": "235050811", "lat": 34.13850895333334, "lon": -118.13228837333334, "type": "building", "name": "South Lake Ave"},
{"id": "236031609", "lat": 34.14331763, "lon": -118.13181181499999, "type": "building", "name": "The Commons"},
{"id": "236031637", "lat": 34.14272201666666, "lon": -118.13192383333335, "type": "building", "name": "Dance123"},
{"id": "264160545", "lat": 34.132430199999995, "lon": -118.128254275, "type": "building", "amenity": "parking", "name": "Garland Parking Lot"},
{"id": "264160546", "lat": 34.134939737500005, "lon": -118.12839907499998, "type": "building", "amenity": "parking", "name": "Polytechnic Parking Garage"},
{"id": "264160634", "lat": 34.13241923333334, "lon": -118.12879944444444, "type": "building", "name": "Garland Performing Arts Center"},
{"id": "264161395", "lat": 34.132201744444444, "lon": -118.12924871111113, "type": "building", "name": "Fullerton"},
{"id": "264161397", "lat": 34.13203923636364, "lon": -118.12952220000001, "type": "building", "name": "Hixon"},
{"id": "264161400", "lat": 34.131933044444445, "lon": -118.12911935555556, "type": "building", "name": "Haaga House"},
{"id": "264161402", "lat": 34.13150194545455, "lon": -118.12932396363637, "type": "building", "name": "Language Arts Building"},
{"id": "264161404", "lat": 34.13193768888889, "lon": -118.12874611111111, "type": "building", "name": "Boswell"},
{"id": "264249477", "lat": 34.1324974, "lon": -118.12939375714284, "type": "building", "name": "Poly Building"},
{"id": "264249478", "lat": 34.13391574, "lon": -118.12831506, "type": "building", "name": "Scott Gym"},
{"id": "264249479", "lat": 34.13345857142857, "lon": -118.1283242, "type": "building", "name": "Gamble Gym"},
{"id": "264249480", "lat": 34.13431462, "lon": -118.12830273999998, "type": "building", "name": "Poly Pool"},
{"id": "264250027", "lat": 34.131749994736836, "lon": -118.12870567894738, "type": "building", "name": "Arden lawn"},
{"id": "281218190", "lat": 34.136204066666664, "lon": -118.13207308333334, "type": "building", "name": "Fashion Cleaners annex"},
{"id": "312546718", "lat": 34.13933728333333, "lon": -118.13190821666667, "type": "building", "name": "Burlington Arcade"},
{"id": "312546723", "lat": 34.13970135, "lon": -118.13190603333334, "type": "building", "address": "350 South Lake Avenue, Pasadena", "shop": "mall", "name": "The Colonnade Mall"},
{"id": "326476342", "lat": 34.139427628571426, "lon": -118.12831525714284, "type": "building", "name": "Watchtower"},
{"id": "366446709", "lat": 34.13985044444445, "lon": -118.12651767777778, "type": "building", "name": "Keck Center"},
{"id": "366446713", "lat": 34.13426091111111, "lon": -118.12525696666665, "type": "building", "name": "Caltech Children's Center"},
{"id": "366446718", "lat": 34.138485971428565, "lon": -118.12203978571429, "type": "building", "amenity": "parking", "name": "Lot 7"},
{"id": "390667789", "lat": 34.141534033333336, "lon": -118.13353442222223, "type": "building", "amenity": "parking", "name": "Loading Dock"},
{"id": "468516586", "lat": 34.1332147, "lon": -118.12664216, "type": "building", "name": "Caltech Athletic Center South Field"},
{"id": "468517521", "lat": 34.13299348636364, "lon": -118.12554052272726, "type": "building", "name": "Tournament Park"},
{"id": "468518105", "lat": 34.132609825, "lon": -118.1266101875, "type": "building", "amenity": "parking", "name": "Tournament Park parking lot"},
{"id": "474949666", "lat": 34.133195589473694, "lon": -118.13242937894735, "type": "building", "name": "Sidney F. Tyler Park"},
{"id": "558482715", "lat": 34.13893665, "lon": -118.13323473749999, "type": "building", "name": "The Shops on Lake Avenue"},
{"id": "589964108", "lat": 34.1403658090909, "lon": -118.1270563727273, "type": "building", "name": "Chen Neuroscience Research Building"},
{"id": "668462605", "lat": 34.13944638, "lon": -118.13201302, "type": "building", "name": "370 South Lake Avenue, Pasadena"},
{"id": "680995280", "lat": 34.14285878, "lon": -118.12212272, "type": "building", "name": "Playground"},
{"id": "772859755", "lat": 34.14307861, "lon": -118.12037432500001, "type": "building", "name": "Observatory/Planetarium"},
{"id": "857648974", "lat": 34.139719760000006, "lon": -118.1289683, "type": "building", "address": "350 South Catalina Avenue, Pasadena", "name": "Central Catalina Common Room"}]